GLOBALSTAR M040         
1 25622U 99004B   24317.15841734 -.00000032  00000+0  40265-3 0  9994
2 25622  51.9937 358.1231 0000474 267.9634 128.5562 12.61990207187853
GLOBALSTAR M036         
1 25623U 99004C   24317.62507397 -.00000059  00000+0  35105-3 0  9997
2 25623  51.9959  91.1215 0010575   2.0012  10.7302 11.86580480153272
GLOBALSTAR M038         
1 25624U 99004D   24317.58874243 -.00000042  00000+0  43788-3 0  9998
2 25624  51.9991 335.3449 0001748 329.0988 181.0215 12.32513446175669
GLOBALSTAR M022         
1 25649U 99012A   24317.53489983 -.00000005  00000+0  98856-3 0  9997
2 25649  52.0007 159.8587 0003493  95.7117 302.5469 12.02491317150313
GLOBALSTAR M041         
1 25650U 99012B   24317.46464270 -.00000058  00000+0  34711-3 0  9991
2 25650  52.0047  34.8918 0001994 244.5735 115.4896 11.96660941152335
GLOBALSTAR M046         
1 25651U 99012C   24317.56679434 -.00000149  00000+0 -66719-3 0  9998
2 25651  52.0028 117.8107 0002680 155.4101 292.5934 12.09401534157451
GLOBALSTAR M037         
1 25652U 99012D   24317.56152977 -.00000027  00000+0  42644-3 0  9992
2 25652  51.9977 123.7604 0002934  79.3316 354.8744 12.62425340183916
